COSMOS 2419 (714)       
1 28915U 05050A   17131.04170747 -.00000048  00000-0  00000-0 0  9991
2 28915  65.4790  67.1036 0017499 349.4130  34.6899  2.13110250 88544
COSMOS 2425 (716)       
1 29670U 06062A   17131.07753498 -.00000037  00000-0  10000-3 0  9999
2 29670  65.4795 306.1129 0021484 351.7715 112.3296  2.13104853 80742
COSMOS 2426 (717)       
1 29671U 06062B   17131.15008682 -.00000037  00000-0  10000-3 0  9997
2 29671  65.4988 306.1993 0017443 157.5275 220.8367  2.13102937 80755
COSMOS 2424 (715)       
1 29672U 06062C   17131.14377913 -.00000037  00000-0  10000-3 0  9993
2 29672  65.4815 306.1205 0017242 156.4229  32.4871  2.13102189 80740
COSMOS 2433 (720)       
1 32275U 07052A   17131.12319465 -.00000047  00000-0  10000-3 0  9993
2 32275  65.4944  66.8774 0004171 295.2058  36.0686  2.13104631 74253
COSMOS 2432 (719)       
1 32276U 07052B   17131.13396352 -.00000047  00000-0  10000-3 0  9995
2 32276  65.5070  66.9475 0013706 334.5092 317.9809  2.13104040 74255
COSMOS 2434 (721)       
1 32393U 07065A   17130.91867613 -.00000039  00000-0  00000-0 0  9994
2 32393  65.0976 305.2846 0005934  97.3391 326.8082  2.13102843 72963
COSMOS 2436 (723)       
1 32395U 07065C   17130.83216001 -.00000039  00000-0  10000-3 0  9990
2 32395  65.1063 305.3337 0015710   8.0744  38.2024  2.13104257 72896
COSMOS 2443 (725)       
1 33379U 08046B   17131.19894885 -.00000048  00000-0  00000-0 0  9991
2 33379  65.4238  66.2624 0011256 183.8905 106.6727  2.13099708 67124
COSMOS 2456 (730)       
1 36111U 09070A   17131.19606765  .00000060  00000-0  00000-0 0  9997
2 36111  64.1785 184.8410 0005489 303.5733 144.3447  2.13102876 57639
COSMOS 2457 (733)       
1 36112U 09070B   17131.02722177  .00000061  00000-0  00000-0 0  9997
2 36112  64.1604 184.7673 0006252 182.2611 264.8540  2.13101544 57639
COSMOS 2458 (734)       
1 36113U 09070C   17131.05500152  .00000061  00000-0  10000-3 0  9992
2 36113  64.1664 184.7756 0001947 313.8844 202.4837  2.13102098 57636
COSMOS 2459 (731)       
1 36400U 10007A   17130.79398309 -.00000051  00000-0  10000-3 0  9992
2 36400  65.4029  65.9997 0029656 350.8201 310.2805  2.13102257 55971
COSMOS 2461 (735)       
1 36401U 10007B   17131.04302112 -.00000049  00000-0  10000-3 0  9996
2 36401  65.3964  65.9693 0006561  46.3428 356.4083  2.13102306 55986
COSMOS 2460 (732)       
1 36402U 10007C   17130.86485398 -.00000051  00000-0  10000-3 0  9997
2 36402  65.3863  65.9475 0002357 333.2715 334.1518  2.13101725 55978
COSMOS 2465 (737)       
1 37138U 10041B   17130.83365909 -.00000040  00000-0  00000-0 0  9998
2 37138  64.6961 305.2934 0035319 168.8158 234.7506  2.13104097 52056
COSMOS 2464 (736)       
1 37139U 10041C   17131.07149941 -.00000039  00000-0  00000-0 0  9990
2 37139  64.7017 305.2856 0024130  17.1032  32.0261  2.13102568 52057
COSMOS 2471 (701K)      
1 37372U 11009A   17131.06465036 -.00000049  00000-0  00000-0 0  9990
2 37372  65.3847  65.8888 0008083 246.7683 349.2920  2.13107619 48253
COSMOS 2474 (742)       
1 37829U 11055A   17130.94874661  .00000061  00000-0  00000-0 0  9995
2 37829  64.5025 185.3994 0009713 252.4935 225.6462  2.13101924 43627
COSMOS 2476 (744)       
1 37867U 11064A   17131.06445753  .00000060  00000-0  00000-0 0  9996
2 37867  64.4823 185.4677 0018937 245.6764   7.1655  2.13101999 42971
COSMOS 2477 (745)       
1 37868U 11064B   17131.11188627  .00000060  00000-0  00000-0 0  9997
2 37868  64.4909 185.5101 0016765 247.1774 221.1893  2.13101809 42933
COSMOS 2475 (743)       
1 37869U 11064C   17130.86520584  .00000061  00000-0  00000-0 0  9992
2 37869  64.4989 185.5098 0021786 271.6436 323.8468  2.13101930 42936
COSMOS 2485 (747)       
1 39155U 13019A   17130.85142272  .00000061  00000-0  00000-0 0  9997
2 39155  64.6520 185.4960 0019191 240.6584 253.7810  2.13101977 31440
COSMOS 2492 (754)       
1 39620U 14012A   17131.08222132 -.00000049  00000-0  10000-3 0  9999
2 39620  65.2762  65.8823 0017198 331.1907  14.3909  2.13103419 24390
COSMOS 2500 (755)       
1 40001U 14032A   17131.03073756 -.00000050  00000-0  00000-0 0  9995
2 40001  65.2160  65.8848 0005111 230.3938 298.7956  2.13102844 22614
COSMOS 2501 (702K)      
1 40315U 14075A   17131.28692141 -.00000039  00000-0  00000-0 0  9999
2 40315  64.4285 306.6326 0013860 204.5034 327.7608  2.13098494 19021
COSMOS 2514 (751)       
1 41330U 16008A   17131.03997251 -.00000050  00000-0  00000-0 0  9991
2 41330  65.0178  66.0375 0008475 230.8571 125.3144  2.13103387  9778
COSMOS 2516 (753)       
1 41554U 16032A   17131.22399608 -.00000039  00000-0  00000-0 0  9996
2 41554  64.6502 306.3888 0009887 214.6178 175.5288  2.13101503  7392
